{
  "links" : {
    "next" : "https://api.nasa.gov/neo/rest/v1/feed?start_date=1996-08-09&end_date=1996-08-09&detailed=true&api_key=t0TVs3DtDT2H8Oy2Zy8m2eVrNsAVKAexjcZXUckd",
    "prev" : "https://api.nasa.gov/neo/rest/v1/feed?start_date=1996-08-07&end_date=1996-08-07&detailed=true&api_key=t0TVs3DtDT2H8Oy2Zy8m2eVrNsAVKAexjcZXUckd",
    "self" : "https://api.nasa.gov/neo/rest/v1/feed?start_date=1996-08-08&end_date=1996-08-08&detailed=true&api_key=t0TVs3DtDT2H8Oy2Zy8m2eVrNsAVKAexjcZXUckd"
  },
  "element_count" : 4,
  "near_earth_objects" : {
    "1996-08-08" : [ {
      "links" : {
        "self" : "https://api.nasa.gov/neo/rest/v1/neo/3605335?api_key=t0TVs3DtDT2H8Oy2Zy8m2eVrNsAVKAexjcZXUckd"
      },
      "neo_reference_id" : "3605335",
      "name" : "(2012 KF47)",
      "nasa_jpl_url" : "http://ssd.jpl.nasa.gov/sbdb.cgi?sstr=3605335",
      "absolute_magnitude_h" : 21.0,
      "estimated_diameter" : {
        "kilometers" : {
          "estimated_diameter_min" : 0.1677084622,
          "estimated_diameter_max" : 0.3750075218
        },
        "meters" : {
          "estimated_diameter_min" : 167.7084621628,
          "estimated_diameter_max" : 375.0075217981
        },
        "miles" : {
          "estimated_diameter_min" : 0.1042091748,
          "estimated_diameter_max" : 0.2330187988
        },
        "feet" : {
          "estimated_diameter_min" : 550.2246310023,
          "estimated_diameter_max" : 1230.3396778159
        }
      },
      "is_potentially_hazardous_asteroid" : false,
      "close_approach_data" : [ {
        "close_approach_date" : "1996-08-08",
        "epoch_date_close_approach" : 839487600000,
        "relative_velocity" : {
          "kilometers_per_second" : "10.8765221254",
          "kilometers_per_hour" : "39155.4796512776",
          "miles_per_hour" : "24329.6923422064"
        },
        "miss_distance" : {
          "astronomical" : "0.2238791766",
          "lunar" : "87.0889968872",
          "kilometers" : "33491848",
          "miles" : "20810870"
        },
        "orbiting_body" : "Earth"
      } ],
      "orbital_data" : {
        "orbit_id" : "31",
        "orbit_determination_date" : "2017-04-06 08:49:40",
        "orbit_uncertainty" : "0",
        "minimum_orbit_intersection" : ".144527",
        "jupiter_tisserand_invariant" : "5.610",
        "epoch_osculation" : "2458000.5",
        "eccentricity" : ".3379565732886512",
        "semi_major_axis" : "1.091741633316265",
        "inclination" : "11.89032447864909",
        "ascending_node_longitude" : "148.3829073220226",
        "orbital_period" : "416.6565710033462",
        "perihelion_distance" : ".7227803720041451",
        "perihelion_argument" : "218.5473805366314",
        "aphelion_distance" : "1.460702894628385",
        "perihelion_time" : "2457838.134988817099",
        "mean_anomaly" : "140.2867687531921",
        "mean_motion" : ".8640209348747049",
        "equinox" : "J2000"
      }
    }, {
      "links" : {
        "self" : "https://api.nasa.gov/neo/rest/v1/neo/3661368?api_key=t0TVs3DtDT2H8Oy2Zy8m2eVrNsAVKAexjcZXUckd"
      },
      "neo_reference_id" : "3661368",
      "name" : "(2014 CY4)",
      "nasa_jpl_url" : "http://ssd.jpl.nasa.gov/sbdb.cgi?sstr=3661368",
      "absolute_magnitude_h" : 21.1,
      "estimated_diameter" : {
        "kilometers" : {
          "estimated_diameter_min" : 0.160160338,
          "estimated_diameter_max" : 0.358129403
        },
        "meters" : {
          "estimated_diameter_min" : 160.1603379786,
          "estimated_diameter_max" : 358.1294030194
        },
        "miles" : {
          "estimated_diameter_min" : 0.0995189894,
          "estimated_diameter_max" : 0.2225312253
        },
        "feet" : {
          "estimated_diameter_min" : 525.4604432536,
          "estimated_diameter_max" : 1174.9652706022
        }
      },
      "is_potentially_hazardous_asteroid" : true,
      "close_approach_data" : [ {
        "close_approach_date" : "1996-08-08",
        "epoch_date_close_approach" : 839487600000,
        "relative_velocity" : {
          "kilometers_per_second" : "25.7743942622",
          "kilometers_per_hour" : "92787.8193437893",
          "miles_per_hour" : "57654.742525034"
        },
        "miss_distance" : {
          "astronomical" : "0.0464881356",
          "lunar" : "18.0838851929",
          "kilometers" : "6954526",
          "miles" : "4321342"
        },
        "orbiting_body" : "Earth"
      } ],
      "orbital_data" : {
        "orbit_id" : "20",
        "orbit_determination_date" : "2017-04-06 08:42:33",
        "orbit_uncertainty" : "5",
        "minimum_orbit_intersection" : ".0417191",
        "jupiter_tisserand_invariant" : "2.753",
        "epoch_osculation" : "2458000.5",
        "eccentricity" : ".8192518793733025",
        "semi_major_axis" : "2.651712702802643",
        "inclination" : "15.02022440821165",
        "ascending_node_longitude" : "126.7788723200887",
        "orbital_period" : "1577.204946588377",
        "perihelion_distance" : ".4792920874735183",
        "perihelion_argument" : "289.25993087",
        "aphelion_distance" : "4.824133318131768",
        "perihelion_time" : "2458215.276224850645",
        "mean_anomaly" : "310.9769221092791",
        "mean_motion" : ".2282518836747941",
        "equinox" : "J2000"
      }
    }, {
      "links" : {
        "self" : "https://api.nasa.gov/neo/rest/v1/neo/3726020?api_key=t0TVs3DtDT2H8Oy2Zy8m2eVrNsAVKAexjcZXUckd"
      },
      "neo_reference_id" : "3726020",
      "name" : "(2015 PV228)",
      "nasa_jpl_url" : "http://ssd.jpl.nasa.gov/sbdb.cgi?sstr=3726020",
      "absolute_magnitude_h" : 20.5,
      "estimated_diameter" : {
        "kilometers" : {
          "estimated_diameter_min" : 0.2111324448,
          "estimated_diameter_max" : 0.4721064988
        },
        "meters" : {
          "estimated_diameter_min" : 211.1324447897,
          "estimated_diameter_max" : 472.1064988055
        },
        "miles" : {
          "estimated_diameter_min" : 0.1311915784,
          "estimated_diameter_max" : 0.2933532873
        },
        "feet" : {
          "estimated_diameter_min" : 692.6917701639,
          "estimated_diameter_max" : 1548.9058855411
        }
      },
      "is_potentially_hazardous_asteroid" : false,
      "close_approach_data" : [ {
        "close_approach_date" : "1996-08-08",
        "epoch_date_close_approach" : 839487600000,
        "relative_velocity" : {
          "kilometers_per_second" : "10.4128273849",
          "kilometers_per_hour" : "37486.1785857314",
          "miles_per_hour" : "23292.4535773396"
        },
        "miss_distance" : {
          "astronomical" : "0.0903479972",
          "lunar" : "35.1453704834",
          "kilometers" : "13515868",
          "miles" : "8398371"
        },
        "orbiting_body" : "Earth"
      } ],
      "orbital_data" : {
        "orbit_id" : "34",
        "orbit_determination_date" : "2017-04-06 08:32:27",
        "orbit_uncertainty" : "5",
        "minimum_orbit_intersection" : ".0682463",
        "jupiter_tisserand_invariant" : "3.242",
        "epoch_osculation" : "2458000.5",
        "eccentricity" : ".5605134376446054",
        "semi_major_axis" : "2.424339752601492",
        "inclination" : "14.33577159908238",
        "ascending_node_longitude" : "322.2075037981595",
        "orbital_period" : "1378.759922895775",
        "perihelion_distance" : "1.065464743852358",
        "perihelion_argument" : "340.2845169580112",
        "aphelion_distance" : "3.783214761350627",
        "perihelion_time" : "2458605.331570423563",
        "mean_anomaly" : "202.0759395913031",
        "mean_motion" : ".2611041951697443",
        "equinox" : "J2000"
      }
    }, {
      "links" : {
        "self" : "https://api.nasa.gov/neo/rest/v1/neo/3748472?api_key=t0TVs3DtDT2H8Oy2Zy8m2eVrNsAVKAexjcZXUckd"
      },
      "neo_reference_id" : "3748472",
      "name" : "(2016 FU12)",
      "nasa_jpl_url" : "http://ssd.jpl.nasa.gov/sbdb.cgi?sstr=3748472",
      "absolute_magnitude_h" : 26.9,
      "estimated_diameter" : {
        "kilometers" : {
          "estimated_diameter_min" : 0.0110803882,
          "estimated_diameter_max" : 0.0247765013
        },
        "meters" : {
          "estimated_diameter_min" : 11.0803882126,
          "estimated_diameter_max" : 24.7765012606
        },
        "miles" : {
          "estimated_diameter_min" : 0.0068850319,
          "estimated_diameter_max" : 0.0153953994
        },
        "feet" : {
          "estimated_diameter_min" : 36.3529808636,
          "estimated_diameter_max" : 81.2877363957
        }
      },
      "is_potentially_hazardous_asteroid" : false,
      "close_approach_data" : [ {
        "close_approach_date" : "1996-08-08",
        "epoch_date_close_approach" : 839487600000,
        "relative_velocity" : {
          "kilometers_per_second" : "9.9946838994",
          "kilometers_per_hour" : "35980.8620379442",
          "miles_per_hour" : "22357.1084146326"
        },
        "miss_distance" : {
          "astronomical" : "0.1861240689",
          "lunar" : "72.4022674561",
          "kilometers" : "27843766",
          "miles" : "17301314"
        },
        "orbiting_body" : "Earth"
      } ],
      "orbital_data" : {
        "orbit_id" : "4",
        "orbit_determination_date" : "2017-04-06 08:27:11",
        "orbit_uncertainty" : "7",
        "minimum_orbit_intersection" : ".0336951",
        "jupiter_tisserand_invariant" : "6.057",
        "epoch_osculation" : "2458000.5",
        "eccentricity" : ".1659032170444373",
        "semi_major_axis" : "1.002189261805455",
        "inclination" : "2.07974763007612",
        "ascending_node_longitude" : "227.003991790028",
        "orbital_period" : "366.4570190374504",
        "perihelion_distance" : ".8359228391845402",
        "perihelion_argument" : "194.9107288518438",
        "aphelion_distance" : "1.16845568442637",
        "perihelion_time" : "2458097.775755561877",
        "mean_anomaly" : "264.4382555578862",
        "mean_motion" : ".9823798734858167",
        "equinox" : "J2000"
      }
    } ]
  }
}